O3B MPOWER F1           
1 54755U 22174A   24223.81210043 -.00000018  00000+0  00000+0 0  9992
2 54755   0.0583 347.2571 0006731 148.2264  44.8888  5.00113960 31578
